SL-4 R/B                
1 39679U 14021B   26027.44645664  .00015251  00000+0  34998-3 0  9997
2 39679  51.6054 178.2724 0099041 312.5653  46.7002 15.37884856649920
ALOS-2                  
1 39766U 14029A   26027.46285272  .00000535  00000+0  78529-4 0  9997
2 39766  97.9188 126.6510 0001467 100.4748 259.6629 14.79473850630778
YAOGAN-29               
1 41038U 15069A   26027.50084359  .00001384  00000+0  17717-3 0  9999
2 41038  98.0193  55.8129 0002800 105.6893 254.4629 14.82946658549777
ASTRO-H (HITOMI)        
1 41337U 16012A   26026.98508115  .00004397  00000+0  26036-3 0  9993
2 41337  30.9993 265.6156 0009909 273.9324  86.0181 15.09691312545927
HXMT (HUIYAN)           
1 42758U 17034A   26027.30160076  .00007372  00000+0  37393-3 0  9997
2 42758  43.0132 246.6785 0032638 330.7084  29.1934 15.16912425476254
CZ-2C R/B               
1 43521U 18054D   26026.65503623  .00245988  00000+0  82910-3 0  9997
2 43521  35.1307 233.5843 0013025 254.6267 105.3031 15.88244156422169
SAOCOM 1A               
1 43641U 18076A   26027.51152084  .00000451  00000+0  63141-4 0  9991
2 43641  97.8866 216.2695 0001510  82.9863 277.1522 14.82169451395260
H-2A R/B                
1 43682U 18084L   26027.48436556  .00029733  00000+0  75017-3 0  9998
2 43682  98.8766 236.1218 0026039 164.7524 195.4508 15.39466972399433
SAOCOM 1B               
1 46265U 20059A   26027.47527405  .00001106  00000+0  14547-3 0  9991
2 46265  97.8862 215.3321 0001354  87.4591 272.6777 14.82147242292645
CSS (TIANHE)            
1 48274U 21035A   26027.22862482  .00029284  00000+0  33868-3 0  9992
2 48274  41.4668 100.1488 0009610  12.9722 347.1363 15.61162626271134
COSMOS 2550             
1 48865U 21056A   26026.13240542 -.00000181  00000+0  32270-6 0  9992
2 48865  67.1441 169.6578 0008309 269.8947  90.1255 15.33840202256938
CZ-2C R/B               
1 52794U 22058K   26027.51912591  .00038327  00000+0  62006-3 0  9993
2 52794  50.1880 169.6057 0042544  26.8181 333.4975 15.51366528203731
