CCSDS_OMM_VERS = 2.0
CREATION_DATE  = 
ORIGINATOR     = 

OBJECT_NAME    = SL-4 R/B
OBJECT_ID      = 2014-021B
CENTER_NAME    = EARTH
REF_FRAME      = TEME
TIME_SYSTEM    = UTC
MEAN_ELEMENT_THEORY = SGP/SGP4

EPOCH          = 2026-01-27T10:42:53.853696
MEAN_MOTION    = 15.37884856
ECCENTRICITY   = .0099041
INCLINATION    = 51.6054
RA_OF_ASC_NODE = 178.2724
ARG_OF_PERICENTER = 312.5653
MEAN_ANOMALY   = 46.7002

EPHEMERIS_TYPE = 0
CLASSIFICATION_TYPE = U
NORAD_CAT_ID   = 39679
ELEMENT_SET_NO = 999
REV_AT_EPOCH   = 64992
BSTAR          = .34998E-3
MEAN_MOTION_DOT = .15251E-3
MEAN_MOTION_DDOT = 0

CCSDS_OMM_VERS = 2.0
CREATION_DATE  = 
ORIGINATOR     = 

OBJECT_NAME    = ALOS-2
OBJECT_ID      = 2014-029A
CENTER_NAME    = EARTH
REF_FRAME      = TEME
TIME_SYSTEM    = UTC
MEAN_ELEMENT_THEORY = SGP/SGP4

EPOCH          = 2026-01-27T11:06:30.475008
MEAN_MOTION    = 14.79473850
ECCENTRICITY   = .0001467
INCLINATION    = 97.9188
RA_OF_ASC_NODE = 126.6510
ARG_OF_PERICENTER = 100.4748
MEAN_ANOMALY   = 259.6629

EPHEMERIS_TYPE = 0
CLASSIFICATION_TYPE = U
NORAD_CAT_ID   = 39766
ELEMENT_SET_NO = 999
REV_AT_EPOCH   = 63077
BSTAR          = .78529E-4
MEAN_MOTION_DOT = .535E-5
MEAN_MOTION_DDOT = 0

CCSDS_OMM_VERS = 2.0
CREATION_DATE  = 
ORIGINATOR     = 

OBJECT_NAME    = YAOGAN-29
OBJECT_ID      = 2015-069A
CENTER_NAME    = EARTH
REF_FRAME      = TEME
TIME_SYSTEM    = UTC
MEAN_ELEMENT_THEORY = SGP/SGP4

EPOCH          = 2026-01-27T12:01:12.886176
MEAN_MOTION    = 14.82946658
ECCENTRICITY   = .00028
INCLINATION    = 98.0193
RA_OF_ASC_NODE = 55.8129
ARG_OF_PERICENTER = 105.6893
MEAN_ANOMALY   = 254.4629

EPHEMERIS_TYPE = 0
CLASSIFICATION_TYPE = U
NORAD_CAT_ID   = 41038
ELEMENT_SET_NO = 999
REV_AT_EPOCH   = 54977
BSTAR          = .17717E-3
MEAN_MOTION_DOT = .1384E-4
MEAN_MOTION_DDOT = 0

CCSDS_OMM_VERS = 2.0
CREATION_DATE  = 
ORIGINATOR     = 

OBJECT_NAME    = ASTRO-H (HITOMI)
OBJECT_ID      = 2016-012A
CENTER_NAME    = EARTH
REF_FRAME      = TEME
TIME_SYSTEM    = UTC
MEAN_ELEMENT_THEORY = SGP/SGP4

EPOCH          = 2026-01-26T23:38:31.011360
MEAN_MOTION    = 15.09691312
ECCENTRICITY   = .0009909
INCLINATION    = 30.9993
RA_OF_ASC_NODE = 265.6156
ARG_OF_PERICENTER = 273.9324
MEAN_ANOMALY   = 86.0181

EPHEMERIS_TYPE = 0
CLASSIFICATION_TYPE = U
NORAD_CAT_ID   = 41337
ELEMENT_SET_NO = 999
REV_AT_EPOCH   = 54592
BSTAR          = .26036432E-3
MEAN_MOTION_DOT = .4397E-4
MEAN_MOTION_DDOT = 0

CCSDS_OMM_VERS = 2.0
CREATION_DATE  = 
ORIGINATOR     = 

OBJECT_NAME    = HXMT (HUIYAN)
OBJECT_ID      = 2017-034A
CENTER_NAME    = EARTH
REF_FRAME      = TEME
TIME_SYSTEM    = UTC
MEAN_ELEMENT_THEORY = SGP/SGP4

EPOCH          = 2026-01-27T07:14:18.305664
MEAN_MOTION    = 15.16912425
ECCENTRICITY   = .0032638
INCLINATION    = 43.0132
RA_OF_ASC_NODE = 246.6785
ARG_OF_PERICENTER = 330.7084
MEAN_ANOMALY   = 29.1934

EPHEMERIS_TYPE = 0
CLASSIFICATION_TYPE = U
NORAD_CAT_ID   = 42758
ELEMENT_SET_NO = 999
REV_AT_EPOCH   = 47625
BSTAR          = .37393E-3
MEAN_MOTION_DOT = .7372E-4
MEAN_MOTION_DDOT = 0

CCSDS_OMM_VERS = 2.0
CREATION_DATE  = 
ORIGINATOR     = 

OBJECT_NAME    = CZ-2C R/B
OBJECT_ID      = 2018-054D
CENTER_NAME    = EARTH
REF_FRAME      = TEME
TIME_SYSTEM    = UTC
MEAN_ELEMENT_THEORY = SGP/SGP4

EPOCH          = 2026-01-26T15:43:15.130272
MEAN_MOTION    = 15.88244156
ECCENTRICITY   = .0013025
INCLINATION    = 35.1307
RA_OF_ASC_NODE = 233.5843
ARG_OF_PERICENTER = 254.6267
MEAN_ANOMALY   = 105.3031

EPHEMERIS_TYPE = 0
CLASSIFICATION_TYPE = U
NORAD_CAT_ID   = 43521
ELEMENT_SET_NO = 999
REV_AT_EPOCH   = 42216
BSTAR          = .8291E-3
MEAN_MOTION_DOT = .245988E-2
MEAN_MOTION_DDOT = 0

CCSDS_OMM_VERS = 2.0
CREATION_DATE  = 
ORIGINATOR     = 

OBJECT_NAME    = SAOCOM 1A
OBJECT_ID      = 2018-076A
CENTER_NAME    = EARTH
REF_FRAME      = TEME
TIME_SYSTEM    = UTC
MEAN_ELEMENT_THEORY = SGP/SGP4

EPOCH          = 2026-01-27T12:16:35.400576
MEAN_MOTION    = 14.82169451
ECCENTRICITY   = .000151
INCLINATION    = 97.8866
RA_OF_ASC_NODE = 216.2695
ARG_OF_PERICENTER = 82.9863
MEAN_ANOMALY   = 277.1522

EPHEMERIS_TYPE = 0
CLASSIFICATION_TYPE = U
NORAD_CAT_ID   = 43641
ELEMENT_SET_NO = 999
REV_AT_EPOCH   = 39526
BSTAR          = .63141E-4
MEAN_MOTION_DOT = .451E-5
MEAN_MOTION_DDOT = 0

CCSDS_OMM_VERS = 2.0
CREATION_DATE  = 
ORIGINATOR     = 

OBJECT_NAME    = H-2A R/B
OBJECT_ID      = 2018-084L
CENTER_NAME    = EARTH
REF_FRAME      = TEME
TIME_SYSTEM    = UTC
MEAN_ELEMENT_THEORY = SGP/SGP4

EPOCH          = 2026-01-27T11:37:29.184384
MEAN_MOTION    = 15.39466972
ECCENTRICITY   = .0026039
INCLINATION    = 98.8766
RA_OF_ASC_NODE = 236.1218
ARG_OF_PERICENTER = 164.7524
MEAN_ANOMALY   = 195.4508

EPHEMERIS_TYPE = 0
CLASSIFICATION_TYPE = U
NORAD_CAT_ID   = 43682
ELEMENT_SET_NO = 999
REV_AT_EPOCH   = 39943
BSTAR          = .75017E-3
MEAN_MOTION_DOT = .29733E-3
MEAN_MOTION_DDOT = 0

CCSDS_OMM_VERS = 2.0
CREATION_DATE  = 
ORIGINATOR     = 

OBJECT_NAME    = SAOCOM 1B
OBJECT_ID      = 2020-059A
CENTER_NAME    = EARTH
REF_FRAME      = TEME
TIME_SYSTEM    = UTC
MEAN_ELEMENT_THEORY = SGP/SGP4

EPOCH          = 2026-01-27T11:24:23.677920
MEAN_MOTION    = 14.82147242
ECCENTRICITY   = .0001354
INCLINATION    = 97.8862
RA_OF_ASC_NODE = 215.3321
ARG_OF_PERICENTER = 87.4591
MEAN_ANOMALY   = 272.6777

EPHEMERIS_TYPE = 0
CLASSIFICATION_TYPE = U
NORAD_CAT_ID   = 46265
ELEMENT_SET_NO = 999
REV_AT_EPOCH   = 29264
BSTAR          = .14547E-3
MEAN_MOTION_DOT = .1106E-4
MEAN_MOTION_DDOT = 0

CCSDS_OMM_VERS = 2.0
CREATION_DATE  = 
ORIGINATOR     = 

OBJECT_NAME    = CSS (TIANHE)
OBJECT_ID      = 2021-035A
CENTER_NAME    = EARTH
REF_FRAME      = TEME
TIME_SYSTEM    = UTC
MEAN_ELEMENT_THEORY = SGP/SGP4

EPOCH          = 2026-01-27T05:29:13.184448
MEAN_MOTION    = 15.61162626
ECCENTRICITY   = .000961
INCLINATION    = 41.4668
RA_OF_ASC_NODE = 100.1488
ARG_OF_PERICENTER = 12.9722
MEAN_ANOMALY   = 347.1363

EPHEMERIS_TYPE = 0
CLASSIFICATION_TYPE = U
NORAD_CAT_ID   = 48274
ELEMENT_SET_NO = 999
REV_AT_EPOCH   = 27113
BSTAR          = .33868E-3
MEAN_MOTION_DOT = .29284E-3
MEAN_MOTION_DDOT = 0

CCSDS_OMM_VERS = 2.0
CREATION_DATE  = 
ORIGINATOR     = 

OBJECT_NAME    = COSMOS 2550
OBJECT_ID      = 2021-056A
CENTER_NAME    = EARTH
REF_FRAME      = TEME
TIME_SYSTEM    = UTC
MEAN_ELEMENT_THEORY = SGP/SGP4

EPOCH          = 2026-01-26T03:10:39.828288
MEAN_MOTION    = 15.33840202
ECCENTRICITY   = .00083094
INCLINATION    = 67.1441
RA_OF_ASC_NODE = 169.6578
ARG_OF_PERICENTER = 269.8947
MEAN_ANOMALY   = 90.1255

EPHEMERIS_TYPE = 0
CLASSIFICATION_TYPE = U
NORAD_CAT_ID   = 48865
ELEMENT_SET_NO = 999
REV_AT_EPOCH   = 25693
BSTAR          = .322698E-6
MEAN_MOTION_DOT = -.181E-5
MEAN_MOTION_DDOT = 0

CCSDS_OMM_VERS = 2.0
CREATION_DATE  = 
ORIGINATOR     = 

OBJECT_NAME    = CZ-2C R/B
OBJECT_ID      = 2022-058K
CENTER_NAME    = EARTH
REF_FRAME      = TEME
TIME_SYSTEM    = UTC
MEAN_ELEMENT_THEORY = SGP/SGP4

EPOCH          = 2026-01-27T12:27:32.478624
MEAN_MOTION    = 15.51366528
ECCENTRICITY   = .0042544
INCLINATION    = 50.1880
RA_OF_ASC_NODE = 169.6057
ARG_OF_PERICENTER = 26.8181
MEAN_ANOMALY   = 333.4975

EPHEMERIS_TYPE = 0
CLASSIFICATION_TYPE = U
NORAD_CAT_ID   = 52794
ELEMENT_SET_NO = 999
REV_AT_EPOCH   = 20373
BSTAR          = .62006E-3
MEAN_MOTION_DOT = .38327E-3
MEAN_MOTION_DDOT = 0

